[{"OBJECT_NAME":"YAOGAN-43 01F","OBJECT_ID":"2024-148F","EPOCH":"2026-03-10T00:23:08.877408","MEAN_MOTION":15.29824616,"ECCENTRICITY":0.00057048,"INCLINATION":34.9925,"RA_OF_ASC_NODE":59.8891,"ARG_OF_PERICENTER":18.4862,"MEAN_ANOMALY":341.6062,"EPHEMERIS_TYPE":0,"CLASSIFICATION_TYPE":"U","NORAD_CAT_ID":60463,"ELEMENT_SET_NO":999,"REV_AT_EPOCH":8707,"BSTAR":0.00058388219,"MEAN_MOTION_DOT":0.00017308,"MEAN_MOTION_DDOT":0},{"OBJECT_NAME":"STARLINK-33776","OBJECT_ID":"2025-093R","EPOCH":"2026-03-09T10:08:58.061472","MEAN_MOTION":15.27618549,"ECCENTRICITY":0.00020593,"INCLINATION":43.0043,"RA_OF_ASC_NODE":79.2097,"ARG_OF_PERICENTER":260.6442,"MEAN_ANOMALY":99.4177,"EPHEMERIS_TYPE":0,"CLASSIFICATION_TYPE":"U","NORAD_CAT_ID":63851,"ELEMENT_SET_NO":999,"REV_AT_EPOCH":4792,"BSTAR":0.0014489719,"MEAN_MOTION_DOT":0.00039874,"MEAN_MOTION_DDOT":0}]
